ONEWEB-0414             
1 50491U 21132Y   25229.89204161  .00000017  00000+0  10014-4 0  9996
2 50491  87.9139  35.6680 0002062  92.8965 267.2403 13.18685198181650
ONEWEB-0417             
1 50492U 21132Z   25229.90029231  .00000076  00000+0  15877-3 0  9998
2 50492  87.9147  35.6985 0001792  99.6711 260.4623 13.18686724181634
ONEWEB-0418             
1 50493U 21132AA  25229.91002294  .00000050  00000+0  92896-4 0  9999
2 50493  87.9144  35.6825 0001895 103.5949 256.5395 13.18688002181696
ONEWEB-0419             
1 50494U 21132AB  25229.92831461 -.00000016  00000+0 -74279-4 0  9996
2 50494  87.9139  35.6805 0001610 101.8450 258.2863 13.18687852181615
ONEWEB-0420             
1 50495U 21132AC  25229.89368776  .00000077  00000+0  16290-3 0  9990
2 50495  87.9141  35.6975 0001802  81.1748 278.9588 13.18685562181608
ONEWEB-0421             
1 50496U 21132AD  25229.88709570  .00000040  00000+0  68187-4 0  9994
2 50496  87.9142  35.6921 0002113  91.7306 268.4068 13.18685340182943
ONEWEB-0424             
1 50497U 21132AE  25229.92336384  .00000030  00000+0  43879-4 0  9999
2 50497  87.9143  35.6790 0001406  99.5238 260.6053 13.18687607181678
ONEWEB-0426             
1 50498U 21132AF  25229.88379243  .00000120  00000+0  27158-3 0  9997
2 50498  87.9138  35.6802 0002487 102.0062 258.1349 13.18685934182900
